{
  "type": "FeatureCollection",
  "features": [
    {
      "type": "Feature",
      "properties": {
        "norad_id": 30368,
        "name": "FENGYUN 1C DEB",
        "group": "fengyun-1c-debris",
        "lat": -15.22052332987095,
        "lon": -89.38184212613596,
        "alt_km": 1032.7604436497513,
        "timestamp": "2025-12-13T05:42:57.835184+00:00",
        "meta_object_name": "FENGYUN 1C DEB",
        "meta_object_id": "1999-025ACF",
        "meta_epoch": "2025-12-12T06:11:36.052224",
        "meta_mean_motion": 13.7536458,
        "meta_eccentricity": 0.0186058,
        "meta_inclination": 99.1883,
        "meta_ra_of_asc_node": 92.1974,
        "meta_arg_of_pericenter": 309.3169,
        "meta_mean_anomaly": 77.7231,
        "meta_ephemeris_type": 0,
        "meta_classification_type": "U",
        "meta_norad_cat_id": 30368,
        "meta_element_set_no": 999,
        "meta_rev_at_epoch": 94655,
        "meta_bstar": 0.00063495684,
        "meta_mean_motion_dot": 6.48e-06,
        "meta_mean_motion_ddot": 0,
        "tle_line1": "1 30368U 99025ACF 25346.25805616  .00000648  00000+0  63496-3 0  9996",
        "tle_line2": "2 30368  99.1883  92.1974 0186058 309.3169  77.7231 13.75364580946559"
      },
      "geometry": {
        "type": "Point",
        "coordinates": [
          -89.38184212613596,
          -15.22052332987095
        ]
      }
    },
    {
      "type": "Feature",
      "properties": {
        "norad_id": 30369,
        "name": "FENGYUN 1C DEB",
        "group": "fengyun-1c-debris",
        "lat": 40.90305310688105,
        "lon": 172.22122431370485,
        "alt_km": 808.122725567111,
        "timestamp": "2025-12-13T05:42:57.835195+00:00",
        "meta_object_name": "FENGYUN 1C DEB",
        "meta_object_id": "1999-025ACG",
        "meta_epoch": "2025-12-11T12:49:19.064352",
        "meta_mean_motion": 14.12056236,
        "meta_eccentricity": 0.00991261,
        "meta_inclination": 98.7212,
        "meta_ra_of_asc_node": 342.9221,
        "meta_arg_of_pericenter": 198.9357,
        "meta_mean_anomaly": 283.5503,
        "meta_ephemeris_type": 0,
        "meta_classification_type": "U",
        "meta_norad_cat_id": 30369,
        "meta_element_set_no": 999,
        "meta_rev_at_epoch": 97229,
        "meta_bstar": 0.00031611334,
        "meta_mean_motion_dot": 5.64e-06,
        "meta_mean_motion_ddot": 0,
        "tle_line1": "1 30369U 99025ACG 25345.53424843  .00000564  00000+0  31611-3 0  9997",
        "tle_line2": "2 30369  98.7212 342.9221 0099126 198.9357 283.5503 14.12056236972299"
      },
      "geometry": {
        "type": "Point",
        "coordinates": [
          172.22122431370485,
          40.90305310688105
        ]
      }
    },
    {
      "type": "Feature",
      "properties": {
        "norad_id": 30370,
        "name": "FENGYUN 1C DEB",
        "group": "fengyun-1c-debris",
        "lat": 74.8169043225782,
        "lon": 7.202021178148676,
        "alt_km": 858.2537365156522,
        "timestamp": "2025-12-13T05:42:57.835206+00:00",
        "meta_object_name": "FENGYUN 1C DEB",
        "meta_object_id": "1999-025ACH",
        "meta_epoch": "2025-12-12T02:25:02.388576",
        "meta_mean_motion": 14.19145972,
        "meta_eccentricity": 0.00992061,
        "meta_inclination": 99.0563,
        "meta_ra_of_asc_node": 42.0352,
        "meta_arg_of_pericenter": 319.1878,
        "meta_mean_anomaly": 69.7173,
        "meta_ephemeris_type": 0,
        "meta_classification_type": "U",
        "meta_norad_cat_id": 30370,
        "meta_element_set_no": 999,
        "meta_rev_at_epoch": 97085,
        "meta_bstar": 0.0018708057,
        "meta_mean_motion_dot": 4.066e-05,
        "meta_mean_motion_ddot": 0,
        "tle_line1": "1 30370U 99025ACH 25346.10072209  .00004066  00000+0  18708-2 0  9990",
        "tle_line2": "2 30370  99.0563  42.0352 0099206 319.1878  69.7173 14.19145972970851"
      },
      "geometry": {
        "type": "Point",
        "coordinates": [
          7.202021178148676,
          74.8169043225782
        ]
      }
    },
    {
      "type": "Feature",
      "properties": {
        "norad_id": 30371,
        "name": "FENGYUN 1C DEB",
        "group": "fengyun-1c-debris",
        "lat": 64.52001561955363,
        "lon": -131.30461872296107,
        "alt_km": 788.3094220209168,
        "timestamp": "2025-12-13T05:42:57.835216+00:00",
        "meta_object_name": "FENGYUN 1C DEB",
        "meta_object_id": "1999-025ACJ",
        "meta_epoch": "2025-12-12T02:26:50.928576",
        "meta_mean_motion": 14.30227248,
        "meta_eccentricity": 0.00068838,
        "meta_inclination": 98.5765,
        "meta_ra_of_asc_node": 29.1134,
        "meta_arg_of_pericenter": 338.9694,
        "meta_mean_anomaly": 48.2972,
        "meta_ephemeris_type": 0,
        "meta_classification_type": "U",
        "meta_norad_cat_id": 30371,
        "meta_element_set_no": 999,
        "meta_rev_at_epoch": 97894,
        "meta_bstar": 0.0016519049,
        "meta_mean_motion_dot": 4.24e-05,
        "meta_mean_motion_ddot": 0,
        "tle_line1": "1 30371U 99025ACJ 25346.10197834  .00004240  00000+0  16519-2 0  9995",
        "tle_line2": "2 30371  98.5765  29.1134 0006883 338.9694  48.2972 14.30227248978945"
      },
      "geometry": {
        "type": "Point",
        "coordinates": [
          -131.30461872296107,
          64.52001561955363
        ]
      }
    },
    {
      "type": "Feature",
      "properties": {
        "norad_id": 30374,
        "name": "FENGYUN 1C DEB",
        "group": "fengyun-1c-debris",
        "lat": -73.19698439550471,
        "lon": -1.9205687742432784,
        "alt_km": 695.7599575131662,
        "timestamp": "2025-12-13T05:42:57.835227+00:00",
        "meta_object_name": "FENGYUN 1C DEB",
        "meta_object_id": "1999-025ACM",
        "meta_epoch": "2025-12-11T21:54:27.597024",
        "meta_mean_motion": 14.61261851,
        "meta_eccentricity": 0.0039299,
        "meta_inclination": 99.2729,
        "meta_ra_of_asc_node": 209.3497,
        "meta_arg_of_pericenter": 170.6935,
        "meta_mean_anomaly": 316.6192,
        "meta_ephemeris_type": 0,
        "meta_classification_type": "U",
        "meta_norad_cat_id": 30374,
        "meta_element_set_no": 999,
        "meta_rev_at_epoch": 98910,
        "meta_bstar": 0.0027324,
        "meta_mean_motion_dot": 0.00013594,
        "meta_mean_motion_ddot": 0,
        "tle_line1": "1 30374U 99025ACM 25345.91281941  .00013594  00000+0  27324-2 0  9997",
        "tle_line2": "2 30374  99.2729 209.3497 0039299 170.6935 316.6192 14.61261851989104"
      },
      "geometry": {
        "type": "Point",
        "coordinates": [
          -1.9205687742432784,
          -73.19698439550471
        ]
      }
    },
    {
      "type": "Feature",
      "properties": {
        "norad_id": 30377,
        "name": "FENGYUN 1C DEB",
        "group": "fengyun-1c-debris",
        "lat": -56.013710296097706,
        "lon": 20.146291982169167,
        "alt_km": 835.3057855910147,
        "timestamp": "2025-12-13T05:42:57.835238+00:00",
        "meta_object_name": "FENGYUN 1C DEB",
        "meta_object_id": "1999-025ACQ",
        "meta_epoch": "2025-12-12T07:46:26.453856",
        "meta_mean_motion": 13.99170642,
        "meta_eccentricity": 0.01181284,
        "meta_inclination": 98.8936,
        "meta_ra_of_asc_node": 5.8286,
        "meta_arg_of_pericenter": 267.817,
        "meta_mean_anomaly": 111.794,
        "meta_ephemeris_type": 0,
        "meta_classification_type": "U",
        "meta_norad_cat_id": 30377,
        "meta_element_set_no": 999,
        "meta_rev_at_epoch": 96201,
        "meta_bstar": 0.00046900934,
        "meta_mean_motion_dot": 6.78e-06,
        "meta_mean_motion_ddot": 0,
        "tle_line1": "1 30377U 99025ACQ 25346.32391729  .00000678  00000+0  46901-3 0  9994",
        "tle_line2": "2 30377  98.8936   5.8286 0118128 267.8170 111.7940 13.99170642962019"
      },
      "geometry": {
        "type": "Point",
        "coordinates": [
          20.146291982169167,
          -56.013710296097706
        ]
      }
    },
    {
      "type": "Feature",
      "properties": {
        "norad_id": 30379,
        "name": "FENGYUN 1C DEB",
        "group": "fengyun-1c-debris",
        "lat": 73.6328376635689,
        "lon": -29.697108385135778,
        "alt_km": 882.9207299912896,
        "timestamp": "2025-12-13T05:42:57.835248+00:00",
        "meta_object_name": "FENGYUN 1C DEB",
        "meta_object_id": "1999-025ACS",
        "meta_epoch": "2025-12-12T07:17:55.308768",
        "meta_mean_motion": 14.08034011,
        "meta_eccentricity": 0.00355107,
        "meta_inclination": 98.7584,
        "meta_ra_of_asc_node": 1.0587,
        "meta_arg_of_pericenter": 280.48,
        "meta_mean_anomaly": 103.4864,
        "meta_ephemeris_type": 0,
        "meta_classification_type": "U",
        "meta_norad_cat_id": 30379,
        "meta_element_set_no": 999,
        "meta_rev_at_epoch": 96811,
        "meta_bstar": 0.0003663856,
        "meta_mean_motion_dot": 5.84e-06,
        "meta_mean_motion_ddot": 0,
        "tle_line1": "1 30379U 99025ACS 25346.30411237  .00000584  00000+0  36639-3 0  9994",
        "tle_line2": "2 30379  98.7584   1.0587 0035510 280.4800 103.4864 14.08034011968115"
      },
      "geometry": {
        "type": "Point",
        "coordinates": [
          -29.697108385135778,
          73.6328376635689
        ]
      }
    }
  ]
}